[{"OBJECT_NAME":"STARLINK-1964","OBJECT_ID":"2021-009T","EPOCH":"2026-03-09T21:31:58.383264","MEAN_MOTION":15.67134759,"ECCENTRICITY":0.00046841,"INCLINATION":53.045,"RA_OF_ASC_NODE":328.1813,"ARG_OF_PERICENTER":312.9393,"MEAN_ANOMALY":47.1229,"EPHEMERIS_TYPE":0,"CLASSIFICATION_TYPE":"U","NORAD_CAT_ID":47565,"ELEMENT_SET_NO":999,"REV_AT_EPOCH":28156,"BSTAR":0.00093079288,"MEAN_MOTION_DOT":0.00102212,"MEAN_MOTION_DDOT":0},{"OBJECT_NAME":"STARLINK-36642","OBJECT_ID":"2026-022M","EPOCH":"2026-03-09T22:00:01.999584","MEAN_MOTION":15.67111512,"ECCENTRICITY":0.00014785,"INCLINATION":97.2846,"RA_OF_ASC_NODE":102.9081,"ARG_OF_PERICENTER":66.7517,"MEAN_ANOMALY":337.0736,"EPHEMERIS_TYPE":0,"CLASSIFICATION_TYPE":"U","NORAD_CAT_ID":67659,"ELEMENT_SET_NO":999,"REV_AT_EPOCH":608,"BSTAR":-0.020317165,"MEAN_MOTION_DOT":-0.01917754,"MEAN_MOTION_DDOT":0}]
